*******************************************************************************
JPL/HORIZONS                409 Aspasia (A895 XC)          2020-Jun-22 08:59:15
Rec #:     409 (+COV) Soln.date: 2020-May-20_01:04:56   # obs: 3100 (1895-2020)
 
IAU76/J2000 helio. ecliptic osc. elements (au, days, deg., period=Julian yrs):
 
  EPOCH=  2454311.5 ! 2007-Jul-30.00 (TDB)         Residual RMS= .28094
   EC= .07056196181672429  QR= 2.394972018328301   TP= 2454994.1605950268
   OM= 242.363817716969    W=  352.6474056294125   IN= 11.24383089990076
   A= 2.576795784052079    MA= 197.3369516018368   ADIST= 2.758619549775858
   PER= 4.13645            N= .238278062           ANGMOM= .02754467
   DAN= 2.39627            DDN= 2.7569             L= 235.1508562
   B= -1.4298585           MOID= 1.38408005        TP= 2009-Jun-11.6605950268
 
Asteroid physical parameters (km, seconds, rotational period in hours):
   GM= n.a.                RAD= 85.506             ROTPER= 9.022
   H= 7.6                  G= .290                 B-V= .719
                           ALBEDO= .054            STYP= Xc
 
ASTEROID comments: 
1: soln ref.= JPL#103, OCC=0
2: source=ORB
*******************************************************************************
 
 
*******************************************************************************
Ephemeris / WWW_USER Mon Jun 22 08:59:15 2020 Pasadena, USA      / Horizons
*******************************************************************************
Target body name: 409 Aspasia (A895 XC)           {source: JPL#103}
Center body name: Solar System Barycenter (0)     {source: DE431}
Center-site name: BODY CENTER
*******************************************************************************
Start time      : A.D. 1969-Jun-28 00:00:00.0000 TDB
Stop  time      : A.D. 2071-May-04 00:00:00.0000 TDB
Step-size       : 7200 minutes
*******************************************************************************
Center geodetic : 0.00000000,0.00000000,0.0000000 {E-lon(deg),Lat(deg),Alt(km)}
Center cylindric: 0.00000000,0.00000000,0.0000000 {E-lon(deg),Dxy(km),Dz(km)}
Center radii    : (undefined)                                                  
Small perturbers: Yes                             {source: SB431-N16}
Output units    : AU-D
Output type     : GEOMETRIC cartesian states
Output format   : 2 (position and velocity)
Reference frame : Ecliptic of J2000.0
*******************************************************************************
Initial IAU76/J2000 heliocentric ecliptic osculating elements (au, days, deg.):
  EPOCH=  2454311.5 ! 2007-Jul-30.00 (TDB)         Residual RMS= .28094        
   EC= .07056196181672429  QR= 2.394972018328301   TP= 2454994.1605950268      
   OM= 242.363817716969    W=  352.6474056294125   IN= 11.24383089990076       
  Equivalent ICRF heliocentric equatorial cartesian coordinates (au, au/d):
   X= 9.416243983048755E-01  Y= 2.399811360939738E+00  Z= 9.614622811974683E-01
  VX=-9.313966527913229E-03 VY= 3.638276032692857E-03 VZ=-5.250310807499348E-04
Asteroid physical parameters (km, seconds, rotational period in hours):        
   GM= n.a.                RAD= 85.506             ROTPER= 9.022               
   H= 7.6                  G= .290                 B-V= .719                   
                           ALBEDO= .054            STYP= Xc                    
*******************************************************************************
            JDTDB,            Calendar Date (TDB),        delta-T,                      X,                      Y,                      Z,                     VX,                     VY,                     VZ,
******************************************************************************************************************************************************************************************************************
$$SOE
2447680.500000000, A.D. 1989-Jun-03 00:00:00.0000,      56.184853,  1.181901500669877E+00, -2.147549891618799E+00,  4.045996268288917E-01,  9.880458619587310E-03,  4.902662672764162E-03,  1.296348998496448E-03,
2447685.500000000, A.D. 1989-Jun-08 00:00:00.0000,      56.184732,  1.231015155765393E+00, -2.122521908731200E+00,  4.109835411465292E-01,  9.764296116740090E-03,  5.107989213043124E-03,  1.257141180334005E-03,
2447690.500000000, A.D. 1989-Jun-13 00:00:00.0000,      56.184605,  1.279537470040030E+00, -2.096475480908278E+00,  4.171703037481372E-01,  9.643938578341803E-03,  5.310027017745520E-03,  1.217492428676106E-03,
2447695.500000000, A.D. 1989-Jun-18 00:00:00.0000,      56.184473,  1.327447713659476E+00, -2.069427253358705E+00,  4.231577716335484E-01,  9.519484344748778E-03,  5.508696055430633E-03,  1.177427393394588E-03,
2447700.500000000, A.D. 1989-Jun-23 00:00:00.0000,      56.184337,  1.374725651426862E+00, -2.041394262746784E+00,  4.289439247779251E-01,  9.391032908882022E-03,  5.703919772808669E-03,  1.136970611133014E-03,
2447705.500000000, A.D. 1989-Jun-28 00:00:00.0000,      56.184199,  1.421351548222796E+00, -2.012393919843049E+00,  4.345268655122260E-01,  9.258684787662150E-03,  5.895625077360550E-03,  1.096146484126427E-03,
2447710.500000000, A.D. 1989-Jul-03 00:00:00.0000,      56.184062,  1.467306173810988E+00, -1.982443992274370E+00,  4.399048178005494E-01,  9.122541396834912E-03,  6.083742314913937E-03,  1.054979260154471E-03,
2447715.500000000, A.D. 1989-Jul-08 00:00:00.0000,      56.183925,  1.512570807026625E+00, -1.951562587398750E+00,  4.450761264202533E-01,  8.982704929240276E-03,  6.268205242200801E-03,  1.013493013702718E-03,
2447720.500000000, A.D. 1989-Jul-13 00:00:00.0000,      56.183787,  1.557127239364494E+00, -1.919768135329540E+00,  4.500392560508296E-01,  8.839278236410461E-03,  6.448950994594371E-03,  9.717116282776885E-04,
2447725.500000000, A.D. 1989-Jul-18 00:00:00.0000,      56.183649,  1.600957777982999E+00, -1.887079372132028E+00,  4.547927902768445E-01,  8.692364713304259E-03,  6.625920049531277E-03,  9.296587796819252E-04,
2447730.500000000, A.D. 1989-Jul-23 00:00:00.0000,      56.183513,  1.644045248139543E+00, -1.853515323212068E+00,  4.593354305091373E-01,  8.542068186137647E-03,  6.799056186401656E-03,  8.873579200085761E-04,
2447735.500000000, A.D. 1989-Jul-28 00:00:00.0000,      56.183383,  1.686372995073468E+00, -1.819095286912974E+00,  4.636659948276726E-01,  8.388492803666877E-03,  6.968306443394596E-03,  8.448322623266356E-04,
2447740.500000000, A.D. 1989-Aug-02 00:00:00.0000,      56.183258,  1.727924885354997E+00, -1.783838818335623E+00,  4.677834167498396E-01,  8.231742932347125E-03,  7.133621071349234E-03,  8.021047662007127E-04,
2447745.500000000, A.D. 1989-Aug-07 00:00:00.0000,      56.183138,  1.768685307719981E+00, -1.747765713396818E+00,  4.716867439286608E-01,  8.071923055504896E-03,  7.294953484635130E-03,  7.591981241363653E-04,
2447750.500000000, A.D. 1989-Aug-12 00:00:00.0000,      56.183023,  1.808639173410551E+00, -1.710895993140130E+00,  4.753751367855037E-01,  7.909137676527272E-03,  7.452260209330826E-03,  7.161347489334913E-04,
2447755.500000000, A.D. 1989-Aug-17 00:00:00.0000,      56.182914,  1.847771916041881E+00, -1.673249888311953E+00,  4.788478670818136E-01,  7.743491226135703E-03,  7.605500829005165E-03,  6.729367619422521E-04,
2447760.500000000, A.D. 1989-Aug-22 00:00:00.0000,      56.182812,  1.886069491015745E+00, -1.634847824214161E+00,  4.821043164344434E-01,  7.575087973846263E-03,  7.754637928327560E-03,  6.296259822544285E-04,
2447765.500000000, A.D. 1989-Aug-27 00:00:00.0000,      56.182720,  1.923518374502012E+00, -1.595710405843798E+00,  4.851439747793771E-01,  7.404031943691210E-03,  7.899637034665112E-03,  5.862239168777506E-04,
2447770.500000000, A.D. 1989-Sep-01 00:00:00.0000,      56.182639,  1.960105562009460E+00, -1.555858403329564E+00,  4.879664387888755E-01,  7.230426834226865E-03,  8.040466557787528E-03,  5.427517519348178E-04,
2447775.500000000, A.D. 1989-Sep-06 00:00:00.0000,      56.182568,  1.995818566567268E+00, -1.515312737674279E+00,  4.905714102472097E-01,  7.054375942777624E-03,  8.177097727788301E-03,  4.992303448987206E-04,
2447780.500000000, A.D. 1989-Sep-11 00:00:00.0000,      56.182506,  2.030645416538076E+00, -1.474094466811937E+00,  4.929586943901144E-01,  6.875982093798368E-03,  8.309504531353431E-03,  4.556802178356343E-04,
2447785.500000000, A.D. 1989-Sep-16 00:00:00.0000,      56.182453,  2.064574653082768E+00, -1.432224771987175E+00,  4.951281982128006E-01,  6.695347571161876E-03,  8.437663646564647E-03,  4.121215515673940E-04,
2447790.500000000, A.D. 1989-Sep-21 00:00:00.0000,      56.182411,  2.097595327296059E+00, -1.389724944463803E+00,  4.970799287508173E-01,  6.512574054164024E-03,  8.561554376532672E-03,  3.685741806255623E-04,
2447795.500000000, A.D. 1989-Sep-26 00:00:00.0000,      56.182383,  2.129696997031171E+00, -1.346616372567300E+00,  4.988139913374408E-01,  6.327762557155390E-03,  8.681158582237525E-03,  3.250575889024593E-04,
2447800.500000000, A.D. 1989-Oct-01 00:00:00.0000,      56.182368,  2.160869723431925E+00, -1.302920529064514E+00,  5.003305878411137E-01,  6.141013372907534E-03,  8.796460614822347E-03,  2.815909060386294E-04,
2447805.500000000, A.D. 1989-Oct-06 00:00:00.0000,      56.182365,  2.191104067191309E+00, -1.258658958883342E+00,  5.016300148869144E-01,  5.952426019835449E-03,  8.907447247272970E-03,  2.381929046597759E-04,
2447810.500000000, A.D. 1989-Oct-11 00:00:00.0000,      56.182372,  2.220391084555434E+00, -1.213853267176012E+00,  5.027126620662996E-01,  5.762099192857625E-03,  9.014107605284071E-03,  1.948819984175800E-04,
2447815.500000000, A.D. 1989-Oct-16 00:00:00.0000,      56.182391,  2.248722323089567E+00, -1.168525107729722E+00,  5.035790101383641E-01,  5.570130717233860E-03,  9.116433097543680E-03,  1.516762404747783E-04,
